{"type":"FeatureCollection","features":[{"type":"Feature","geometry":{"type":"Polygon","coordinates":[[[88.2336728117343,22.545246167946758],[88.23823446229089,22.545607372135198],[88.24371922269502,22.545460200324836],[88.24552957113865,22.545696484184553],[88.24587740078626,22.546008621485875],[88.24668891823528,22.54593732902392],[88.24761643313838,22.545067739938766],[88.24941347425421,22.543507097621024],[88.2518615227942,22.541826011733324],[88.25249915289055,22.543676553591702],[88.25805073003033,22.54197759480744],[88.25821572194182,22.541451455986568],[88.25699393533746,22.538691261471815],[88.25627602505345,22.53818742780124],[88.25554919195989,22.53804022708385],[88.25555364745101,22.537005714871107],[88.25658812589894,22.536983409878236],[88.25827371399994,22.536283370336402],[88.25839407883194,22.536122845117397],[88.25932156744176,22.534896531487032],[88.25933938786056,22.534169709971533],[88.2599815120882,22.534009249348333],[88.26064590170766,22.533995846402636],[88.26067270577,22.53435705045925],[88.26070834549495,22.534963444819848],[88.26099375924036,22.535770527060976],[88.26123009288008,22.535935524333183],[88.26142180210394,22.53583740074147],[88.26209515364806,22.535592175278488],[88.2628576639993,22.534816257544307],[88.26390555566675,22.534789503192876],[88.26432020613397,22.535164140630627],[88.26442726475389,22.53631012909251],[88.26468139799681,22.53687641076271],[88.26471265413022,22.53735802744448],[88.26526553504337,22.53781723708647],[88.2659522646869,22.53780387101027],[88.26738367141246,22.53770138557535],[88.26782954265673,22.538008983529615],[88.26806591343909,22.538664525997905],[88.26812827235113,22.539088110239675],[88.26852514019117,22.53915499557002],[88.26870798324805,22.53907922361703],[88.26903350583156,22.538945431491786],[88.26972017604639,22.538936503683175],[88.26988519798749,22.53847725978863],[88.27030431972752,22.53836128428444],[88.27044261565422,22.538472764854884],[88.27058974481584,22.538677886975563],[88.2705362231148,22.53895877474668],[88.27042472554567,22.53923531530199],[88.27070124196229,22.539462729885305],[88.27117387682782,22.539649966337247],[88.27190965376461,22.539609826283158],[88.27252947234284,22.539636627859835],[88.27262307531544,22.54008699943061],[88.27339007765725,22.540260826564705],[88.27388502563598,22.541446948294727],[88.27471888296984,22.542646501050015],[88.27528514567759,22.542802542004704],[88.27627506712007,22.54244581392007],[88.27639545642,22.5417948118796],[88.2760387409164,22.54081381042393],[88.27813898568407,22.5403946232876],[88.27900408158546,22.540104822087205],[88.2791735213983,22.540764729149807],[88.27989587829431,22.540755865411104],[88.28082335419397,22.54046153578685],[88.28122470756254,22.539587508227843],[88.28196046297701,22.538883034003653],[88.28425240157392,22.538450435715998],[88.28532708652146,22.538392463477113],[88.28609846567339,22.538165085309437],[88.28688326220167,22.538142759731336],[88.28744068471642,22.538151751917237],[88.28818531346604,22.53820517863909],[88.2892599754003,22.537629984109852],[88.29035694461659,22.537358025831068],[88.29099460460884,22.537050299065793],[88.29143155285998,22.535779513309016],[88.29168575099298,22.53461116221867],[88.29112385686696,22.533429556734497],[88.28998238735294,22.532136367462545],[88.28925107131612,22.53130697553576],[88.29070471310054,22.530927959065874],[88.28956323257843,22.528921377556],[88.28893445573723,22.527432043601763],[88.28867141151154,22.52683005959884],[88.2902811133551,22.52594712915547],[88.28968803709567,22.524310620905336],[88.28943835350245,22.523414402988077],[88.29028556529191,22.522848058093007],[88.28987976937765,22.520275213862405],[88.29141819740032,22.519494787335862],[88.29139141227165,22.518553918936544],[88.29119078297124,22.517412388251877],[88.29164561063942,22.5168728909849],[88.2919934430078,22.516703461933133],[88.29291198011936,22.517318812412682],[88.29413824883684,22.517555110478096],[88.29647034905989,22.517760218118397],[88.2974335261593,22.517613069371567],[88.29830306021451,22.517479294899914],[88.29931523201537,22.517028908014115],[88.30028732204127,22.516368992552973],[88.30114797150087,22.515013412397614],[88.30197284964848,22.514152839062245],[88.30331509763735,22.51365342768632],[88.30594591684665,22.51347950620381],[88.30697600810404,22.51372920088232],[88.30802387539683,22.513787155594922],[88.3101463818378,22.51327883580586],[88.31156884360763,22.512957745918698],[88.31172050583706,22.513207522652902],[88.31205935219877,22.513403701962037],[88.31237594755731,22.51329217720423],[88.31272821187275,22.51312274748488],[88.31311614427625,22.51310051484613],[88.31390097186981,22.513149508936802],[88.31428889378768,22.51306927011821],[88.31488200493666,22.511736003378005],[88.31535015508494,22.510317973212892],[88.31593880241789,22.509827520558268],[88.31683955530309,22.509658055541728],[88.31812372798683,22.509858680485713],[88.31989850505643,22.509608994359695],[88.32029534520942,22.510135142379028],[88.3206431705409,22.511571017533367],[88.32113809945305,22.512177457698414],[88.32230195721132,22.512021418349608],[88.32374670780419,22.511825184675565],[88.32426836615609,22.511736032227923],[88.32676995545917,22.511147405649854],[88.32724257370027,22.51081744888645],[88.32855801920371,22.510500827895406],[88.32906634990874,22.510317970505227],[88.3290485580641,22.51004595140431],[88.32922692097624,22.50973386233048],[88.32948556813446,22.509631341793288],[88.32969958655622,22.50943508179937],[88.32991360392097,22.50876179040361],[88.33026142621598,22.508556635702632],[88.33107300071357,22.508485267991873],[88.33122459474005,22.508262360627516],[88.33167047825219,22.50762918438546],[88.33153222890921,22.507214459922274],[88.33236164422321,22.507352737671436],[88.33289676397156,22.50711186609428],[88.33320890792865,22.506880062617114],[88.33366818761016,22.50688451547991],[88.3338420840367,22.507058407023603],[88.3340248746686,22.50734821591286],[88.33427904576172,22.507334828958054],[88.33464024930194,22.50728581235852],[88.33505496625409,22.50665712341447],[88.3357728359899,22.50564933945211],[88.33663796995421,22.504904627234865],[88.33743163660017,22.504039621967905],[88.3382298098386,22.503722970424622],[88.33969685672112,22.503245886570614],[88.34141805721191,22.503054139272244],[88.34225195216862,22.503018489870957],[88.34532429996378,22.503089813249684],[88.34540455543913,22.503928150405372],[88.34535994438072,22.507325944128432],[88.34559181763622,22.50840502628756],[88.34630973500649,22.508364900023558],[88.34798191461425,22.508092943773338],[88.35075547394028,22.508092934879134],[88.35305637588067,22.508356001905025],[88.35415328820851,22.508659173858547],[88.35539738502474,22.508833096152475],[88.35695808617571,22.509256694151084],[88.35982974469442,22.509827478172888],[88.36196119608188,22.510130707520833],[88.36443594204538,22.51059893426293],[88.36599216905506,22.51093339488518],[88.36749493784744,22.511459498549993],[88.36861859167438,22.51221315136253],[88.36976458330444,22.513243133386947],[88.37053601637751,22.514019047004194],[88.37107110851191,22.5148305824668],[88.37132972782923,22.515847260013473],[88.3712762562646,22.517033446620452],[88.3714947338469,22.518446929358937],[88.3716909183682,22.51994073744729],[88.37157057123069,22.52064530458448],[88.37158390200705,22.521305212604382],[88.37168203120643,22.522366455727006],[88.3718514794425,22.523476782250434],[88.37202981410591,22.524515737708928],[88.37222155267143,22.525670653000418],[88.37249356965503,22.52638416312218],[88.3725560007548,22.526892460981276],[88.37253370923368,22.52753455201072],[88.37263627975877,22.52949661998017],[88.37265412774583,22.52984436718435],[88.3727967632613,22.53208285165188],[88.37302419409804,22.534160811337625],[88.37346120453267,22.534348124734056],[88.37443326103075,22.53437934835475],[88.37579777638312,22.53433468270315],[88.37676541128246,22.53404046415004],[88.37757248528911,22.533509796933398],[88.37876303815682,22.533197617421003],[88.3793694833035,22.533500892590144],[88.37986448136088,22.53353657833496],[88.37990461408852,22.534200931265826],[88.37963256973906,22.5350036215067],[88.3798600386212,22.53553865953529],[88.38039064659559,22.535721527807972],[88.38069385880192,22.535792839400276],[88.38099706887844,22.535931063658357],[88.38167041716792,22.536283366385867],[88.38242401576147,22.536363633530488],[88.38518418592871,22.536751589335246],[88.38586642717486,22.537255427873397],[88.38652193128334,22.537830637790627],[88.38658878414705,22.538276604910134],[88.38701240531203,22.538829499015385],[88.38757868303323,22.539529549947677],[88.38764560829189,22.539979971759973],[88.38725316124042,22.54100103139887],[88.38677157400642,22.543199451011002],[88.38650853108446,22.545219398004303],[88.38703468935813,22.54570539979677],[88.38749398985796,22.546833587381265],[88.38896551012722,22.54798849556446],[88.39162754834972,22.547720972210016],[88.3932462330358,22.551685095926672],[88.39244359746593,22.552304880091686],[88.39333091491775,22.554467537484147],[88.39700079685065,22.554235671707833],[88.39724157104521,22.555466395253045],[88.39804419132541,22.555751817639525],[88.39870417321713,22.55735707322286],[88.39729952540772,22.55836929834788],[88.39634530394244,22.559278972512114],[88.39629178934564,22.55991656325829],[88.3976206044874,22.559809550991176],[88.40191475178707,22.559542037620254],[88.404090748623,22.559149600987745],[88.40760010108409,22.558886550672838],[88.40986526984177,22.55858328133],[88.40996782562424,22.558547651579353],[88.40996782562424,22.558552106364008],[88.41146166423964,22.558101764759392],[88.41247829430343,22.557134059201317],[88.41315610833468,22.55594800890581],[88.41431105341297,22.55684875317015],[88.41365108859003,22.55775842200166],[88.41260318868505,22.558743828594146],[88.4107526726505,22.559724885044577],[88.40955316134776,22.560460583415864],[88.40879507902346,22.561606546837105],[88.40832246399428,22.562623218414515],[88.40782749649239,22.56435342907754],[88.40682415054096,22.566007712883753],[88.40607948831337,22.568032190908298],[88.40458124485873,22.5713987345551],[88.40362703657675,22.57377104287304],[88.40283776736636,22.57617442520799],[88.402463220211,22.578051789356838],[88.40162930270091,22.580236706320946],[88.40138411248981,22.580860936947733],[88.4005636439465,22.58292997115437],[88.3992660047236,22.58560992175927],[88.39846784801522,22.587429239734902],[88.39732631909686,22.58950269443651],[88.39659052281523,22.59057287008639],[88.39604656877383,22.591638582499247],[88.39501200831585,22.592878238226195],[88.39424508373835,22.593796813447685],[88.39288500076273,22.595571586846912],[88.39185051250406,22.596325117757743],[88.3910612497485,22.597011810989404],[88.39141798172092,22.59910312089313],[88.39156958636386,22.60024019062096],[88.39212699533769,22.604454058115802],[88.39230983575608,22.606919988016294],[88.39230983575608,22.607526446161753],[88.39230983575608,22.610322276773047],[88.39247483561401,22.614241835477863],[88.39231427721408,22.61690832314686],[88.39216711666187,22.619414392919317],[88.3921135968798,22.620154582993493],[88.39185495400939,22.623556890011436],[88.39163206390346,22.626169914831117],[88.39148038545439,22.628091743023525],[88.39150718275943,22.628938999091584],[88.39146261927611,22.629112915923635],[88.38761436664646,22.629224398184405],[88.38750287376527,22.62967027666062],[88.3863613507257,22.629625678655863],[88.38630338166391,22.630018092309225],[88.38594223931806,22.63047737991578],[88.38238388537614,22.63082963161893],[88.3805600606623,22.63090105403987],[88.37783113972661,22.631418254397584],[88.37624364497789,22.6317660893843],[88.37468741694592,22.63210940526275],[88.37352363423382,22.632608842377188],[88.37253370923368,22.63279612349568],[88.37181578279768,22.632805058216817],[88.37124500277095,22.632938836575768],[88.37079463889827,22.632452753628392],[88.36946136841566,22.63239482544906],[88.36731658446392,22.632256583537522],[88.36456082744219,22.631993485297308],[88.36267461953001,22.631917711560074],[88.3602577768337,22.631525257191107],[88.35934814791187,22.627619105879965],[88.36086425956103,22.62419895876595],[88.36164903721222,22.622937046653814],[88.36135917338633,22.620159060935244],[88.36124768678194,22.619106672756406],[88.36073936348394,22.61816579607831],[88.36049416313718,22.617104592892822],[88.36021318109033,22.61643565598666],[88.3587996499802,22.612774785131204],[88.35859007215048,22.612600837307678],[88.3582645540586,22.61190971524082],[88.35800148564455,22.610959957444972],[88.35763136471543,22.610121562799844],[88.35729250422544,22.608654581097813],[88.35681539837846,22.608008002206624],[88.35595474242328,22.607129517143115],[88.35512985388569,22.606090574698165],[88.35463486875805,22.60530135296025],[88.35327035191135,22.60327690414339],[88.3518613358511,22.60127026059751],[88.35007319676069,22.598920366483732],[88.34927946546082,22.597809982559465],[88.3483163279624,22.595892589044396],[88.34752263853638,22.594113467648214],[88.3465862130141,22.591941878294715],[88.34584154870801,22.589676608276505],[88.34568096512486,22.58853059424243],[88.34588608516616,22.58665777421333],[88.34544909234693,22.585494017192083],[88.34468662305451,22.584227558783116],[88.34367439819636,22.58207389049287],[88.34306797086796,22.5800583773196],[88.34288959083487,22.579139809507694],[88.3420691221482,22.5782167444465],[88.3400090257888,22.57605856412298],[88.338381452938,22.57433735680066],[88.33625002562371,22.572335214463248],[88.33461793823271,22.570636285894853],[88.33407839229888,22.569641890322636],[88.33269610410629,22.568081154764233],[88.33096595796172,22.566721182787465],[88.33026142621598,22.565682159725675],[88.32977987099116,22.564964261751708],[88.32890585237924,22.563305468289204],[88.32845994041882,22.56250729611252],[88.3275547583897,22.561517367792387],[88.32668076903897,22.560371389987868],[88.32636865219172,22.559867511664006],[88.32550798390245,22.558984670935015],[88.3238492457502,22.55729462618068],[88.3229217244855,22.55653208130517],[88.32186050015788,22.555622503667436],[88.32152158206078,22.55526570455219],[88.32181586484786,22.554913477461582],[88.3221859954646,22.55444976107545],[88.32254270289084,22.554315912838895],[88.32278796998182,22.55385217208558],[88.3226140291952,22.553566814981657],[88.32083039150528,22.552028445358932],[88.31851613533742,22.550927006678343],[88.31607702734053,22.550173427044623],[88.3120549024935,22.549839036215538],[88.31092673916174,22.54974980128098],[88.31012413232611,22.549723052909794],[88.30938833454844,22.54942435582778],[88.30836275062208,22.549112169932776],[88.30750662017074,22.548822297005586],[88.306209004834,22.54863507212776],[88.30471968475997,22.54849237426141],[88.30319470869917,22.548791117222553],[88.29768323800226,22.55071296823917],[88.29181062361178,22.552282618462854],[88.28624561610152,22.553392936965274],[88.27228421823861,22.555898936545645],[88.26749064826286,22.557530923302753],[88.26067270577,22.56002362824305],[88.25616456522813,22.561954418393054],[88.25231186022855,22.56216399256796],[88.24680040229167,22.563087031206134],[88.24247957383953,22.562632207122665],[88.23836379695084,22.561240969462418],[88.2357508058815,22.5580749650171],[88.23425699291361,22.554503236107013],[88.23361486124828,22.550735338286305],[88.2336728117343,22.545246167946758]]]},"id":"00000000000000000000","properties":{"AREA":0.0,"Dist_Name":"Kolkata","State_Name":"WEST BENGAL"}}]}